{"type":"FeatureCollection","features":[{"type":"Feature","properties":{"name":"서울"},"geometry":{"type":"Polygon","coordinates":[[[127.02,37.7],[127.1,37.69],[127.09,37.65],[127.11,37.64],[127.12,37.61],[127.1,37.56],[127.18,37.58],[127.18,37.55],[127.15,37.52],[127.14,37.51],[127.16,37.5],[127.15,37.48],[127.05,37.43],[127.03,37.47],[126.91,37.43],[126.87,37.49],[126.81,37.47],[126.82,37.54],[126.76,37.56],[126.8,37.6],[126.85,37.57],[126.88,37.58],[126.9,37.59],[126.9,37.65],[126.95,37.66],[126.96,37.63],[126.98,37.63],[126.99,37.68],[127.02,37.7]]]}},{"type":"Feature","properties":{"name":"부산"},"geometry":{"type":"MultiPolygon","coordinates":[[[[128.83,35.09],[128.85,35.04],[128.83,34.99],[128.79,35.05],[128.83,35.07],[128.81,35.08],[128.83,35.09]]],[[[128.96,35.05],[128.96,35.11],[128.93,35.07],[128.93,35.11],[128.9,35.08],[128.9,35.12],[128.88,35.08],[128.84,35.08],[128.82,35.1],[128.84,35.11],[128.84,35.12],[128.79,35.16],[128.87,35.17],[128.88,35.15],[128.88,35.21],[128.99,35.23],[129.01,35.27],[129.11,35.3],[129.13,35.35],[129.12,35.37],[129.18,35.35],[129.2,35.39],[129.27,35.39],[129.28,35.34],[129.31,35.32],[129.26,35.32],[129.22,35.19],[129.18,35.15],[129.12,35.15],[129.11,35.13],[129.13,35.11],[129.11,35.09],[129.05,35.13],[129.02,35.05],[129,35.09],[129.01,35.05],[128.97,35.06],[128.97,35.03],[128.96,35.05]]]]}},{"type":"Feature","properties":{"name":"대구"},"geometry":{"type":"Polygon","coordinates":[[[128.7,36.02],[128.75,35.97],[128.74,35.93],[128.76,35.89],[128.75,35.86],[128.72,35.86],[128.72,35.81],[128.68,35.79],[128.69,35.73],[128.62,35.7],[128.61,35.74],[128.56,35.74],[128.53,35.71],[128.53,35.68],[128.51,35.67],[128.51,35.64],[128.37,35.61],[128.4,35.64],[128.35,35.7],[128.43,35.7],[128.43,35.73],[128.38,35.76],[128.42,35.81],[128.48,35.82],[128.45,35.85],[128.38,35.85],[128.4,35.9],[128.45,35.94],[128.48,35.93],[128.47,35.9],[128.5,35.89],[128.53,35.94],[128.53,35.98],[128.55,35.96],[128.62,36.01],[128.7,36.02]]]}},{"type":"Feature","properties":{"name":"인천"},"geometry":{"type":"MultiPolygon","coordinates":[[[[126.11,37.27],[126.12,37.25],[126.17,37.23],[126.12,37.21],[126.1,37.23],[126.08,37.22],[126.11,37.27]]],[[[126.48,37.24],[126.46,37.22],[126.43,37.23],[126.43,37.27],[126.49,37.28],[126.5,37.26],[126.48,37.24]]],[[[126.5,37.53],[126.56,37.51],[126.58,37.49],[126.51,37.47],[126.44,37.42],[126.36,37.44],[126.36,37.47],[126.48,37.5],[126.5,37.53]]],[[[126.66,37.64],[126.75,37.58],[126.79,37.58],[126.74,37.51],[126.74,37.49],[126.78,37.45],[126.72,37.38],[126.69,37.39],[126.66,37.35],[126.64,37.35],[126.65,37.34],[126.58,37.34],[126.6,37.35],[126.58,37.35],[126.65,37.36],[126.61,37.39],[126.6,37.42],[126.64,37.42],[126.61,37.43],[126.61,37.45],[126.59,37.44],[126.59,37.46],[126.62,37.46],[126.6,37.47],[126.63,37.49],[126.64,37.48],[126.64,37.5],[126.6,37.5],[126.61,37.55],[126.57,37.59],[126.63,37.6],[126.66,37.64]]],[[[125.71,37.68],[125.68,37.65],[125.68,37.68],[125.71,37.68]]],[[[126.33,37.75],[126.32,37.71],[126.38,37.68],[126.34,37.64],[126.32,37.68],[126.27,37.71],[126.29,37.71],[126.29,37.74],[126.33,37.75]]],[[[126.27,37.82],[126.32,37.81],[126.33,37.79],[126.23,37.75],[126.2,37.77],[126.22,37.81],[126.27,37.82]]],[[[126.44,37.82],[126.51,37.78],[126.53,37.75],[126.52,37.67],[126.54,37.62],[126.52,37.61],[126.52,37.58],[126.51,37.6],[126.4,37.59],[126.37,37.61],[126.37,37.64],[126.41,37.65],[126.39,37.7],[126.35,37.72],[126.35,37.79],[126.39,37.82],[126.44,37.82]]],[[[124.72,37.83],[124.69,37.8],[124.66,37.82],[124.7,37.85],[124.73,37.84],[124.72,37.83]]],[[[124.69,37.98],[124.72,37.98],[124.75,37.96],[124.69,37.92],[124.64,37.92],[124.61,37.97],[124.69,37.98]]]]}},{"type":"Feature","properties":{"name":"광주"},"geometry":{"type":"Polygon","coordinates":[[[126.76,35.26],[126.76,35.23],[126.81,35.22],[126.88,35.25],[126.93,35.25],[126.97,35.18],[127,35.19],[127.02,35.17],[127.01,35.13],[126.95,35.07],[126.92,35.09],[126.81,35.05],[126.76,35.06],[126.77,35.07],[126.73,35.11],[126.67,35.11],[126.64,35.15],[126.67,35.17],[126.65,35.19],[126.72,35.21],[126.74,35.25],[126.76,35.26]]]}},{"type":"Feature","properties":{"name":"대전"},"geometry":{"type":"Polygon","coordinates":[[[127.4,36.49],[127.41,36.45],[127.45,36.45],[127.48,36.48],[127.48,36.46],[127.5,36.45],[127.49,36.43],[127.5,36.41],[127.52,36.42],[127.56,36.4],[127.52,36.39],[127.52,36.35],[127.5,36.34],[127.49,36.23],[127.44,36.19],[127.39,36.23],[127.39,36.26],[127.36,36.27],[127.36,36.22],[127.33,36.18],[127.32,36.22],[127.28,36.24],[127.29,36.26],[127.25,36.29],[127.28,36.34],[127.28,36.41],[127.34,36.43],[127.36,36.49],[127.4,36.49]]]}},{"type":"Feature","properties":{"name":"울산"},"geometry":{"type":"Polygon","coordinates":[[[129.16,35.72],[129.21,35.72],[129.26,35.7],[129.26,35.66],[129.3,35.64],[129.35,35.68],[129.45,35.65],[129.44,35.63],[129.46,35.59],[129.45,35.53],[129.44,35.53],[129.45,35.51],[129.43,35.51],[129.44,35.49],[129.41,35.47],[129.38,35.54],[129.39,35.5],[129.36,35.5],[129.39,35.48],[129.37,35.45],[129.33,35.49],[129.37,35.43],[129.35,35.43],[129.36,35.41],[129.34,35.38],[129.36,35.36],[129.31,35.33],[129.28,35.34],[129.27,35.39],[129.2,35.39],[129.22,35.41],[129.2,35.44],[129.17,35.43],[129.11,35.5],[129.05,35.51],[129.06,35.53],[129,35.53],[128.97,35.56],[129.02,35.59],[129.01,35.62],[129.05,35.65],[129.08,35.64],[129.07,35.67],[129.08,35.7],[129.14,35.72],[129.16,35.72]]]}},{"type":"Feature","properties":{"name":"세종"},"geometry":{"type":"Polygon","coordinates":[[[127.17,36.73],[127.3,36.69],[127.28,36.64],[127.29,36.64],[127.3,36.59],[127.34,36.56],[127.38,36.57],[127.38,36.54],[127.41,36.54],[127.41,36.5],[127.36,36.49],[127.36,36.46],[127.33,36.42],[127.25,36.41],[127.2,36.44],[127.19,36.49],[127.17,36.51],[127.17,36.54],[127.21,36.58],[127.16,36.61],[127.16,36.69],[127.13,36.71],[127.17,36.73]]]}},{"type":"Feature","properties":{"name":"경기"},"geometry":{"type":"MultiPolygon","coordinates":[[[[126.74,37.04],[126.76,37.06],[126.67,37.12],[126.68,37.14],[126.66,37.14],[126.7,37.15],[126.65,37.15],[126.67,37.19],[126.65,37.18],[126.65,37.27],[126.63,37.29],[126.66,37.29],[126.63,37.28],[126.66,37.29],[126.66,37.28],[126.68,37.28],[126.68,37.26],[126.76,37.25],[126.78,37.23],[126.79,37.27],[126.81,37.27],[126.8,37.29],[126.84,37.28],[126.82,37.3],[126.77,37.29],[126.67,37.33],[126.62,37.31],[126.58,37.29],[126.62,37.26],[126.64,37.26],[126.63,37.28],[126.64,37.27],[126.65,37.2],[126.63,37.22],[126.63,37.2],[126.62,37.24],[126.59,37.23],[126.62,37.21],[126.6,37.2],[126.6,37.22],[126.58,37.22],[126.56,37.19],[126.54,37.23],[126.57,37.24],[126.53,37.29],[126.56,37.28],[126.57,37.3],[126.69,37.34],[126.74,37.4],[126.79,37.39],[126.79,37.41],[126.78,37.39],[126.75,37.4],[126.78,37.45],[126.74,37.49],[126.77,37.55],[126.82,37.54],[126.81,37.47],[126.87,37.49],[126.9,37.43],[126.93,37.45],[126.96,37.44],[127,37.47],[127.03,37.46],[127.04,37.44],[127.07,37.43],[127.16,37.49],[127.14,37.51],[127.16,37.54],[127.18,37.55],[127.18,37.58],[127.1,37.56],[127.12,37.61],[127.11,37.64],[127.09,37.65],[127.1,37.69],[127.03,37.7],[126.99,37.68],[126.98,37.63],[126.96,37.63],[126.95,37.66],[126.9,37.65],[126.9,37.59],[126.85,37.57],[126.8,37.61],[126.79,37.58],[126.75,37.58],[126.66,37.64],[126.63,37.6],[126.56,37.6],[126.53,37.67],[126.52,37.78],[126.52,37.79],[126.59,37.76],[126.66,37.78],[126.66,37.84],[126.69,37.87],[126.67,37.87],[126.67,37.96],[126.82,38],[126.86,38.03],[126.86,38.11],[126.9,38.14],[126.97,38.14],[126.95,38.16],[126.98,38.23],[127,38.22],[127.04,38.26],[127.1,38.28],[127.11,38.24],[127.16,38.24],[127.19,38.16],[127.22,38.14],[127.28,38.18],[127.3,38.18],[127.28,38.12],[127.31,38.12],[127.32,38.09],[127.38,38.12],[127.41,38.1],[127.43,38.12],[127.46,38.01],[127.54,38],[127.55,37.97],[127.6,37.95],[127.62,37.93],[127.61,37.88],[127.52,37.83],[127.54,37.81],[127.52,37.79],[127.54,37.76],[127.51,37.72],[127.56,37.72],[127.54,37.64],[127.56,37.63],[127.61,37.65],[127.71,37.59],[127.79,37.59],[127.85,37.55],[127.76,37.5],[127.8,37.47],[127.8,37.43],[127.78,37.37],[127.76,37.37],[127.77,37.31],[127.75,37.3],[127.75,37.22],[127.7,37.14],[127.63,37.16],[127.63,37.1],[127.6,37.09],[127.6,37.07],[127.58,37.08],[127.56,37.04],[127.47,37.05],[127.45,37.01],[127.39,37],[127.4,36.97],[127.38,36.95],[127.3,36.93],[127.29,36.89],[127.14,36.97],[127.11,36.97],[127.1,36.94],[127,36.94],[126.91,36.9],[126.9,36.93],[126.85,36.95],[126.82,36.99],[126.79,37],[126.78,37.01],[126.79,37.03],[126.74,37.04]],[[126.76,37.06],[126.77,37.06],[126.76,37.12],[126.82,37.14],[126.78,37.15],[126.8,37.2],[126.78,37.17],[126.75,37.17],[126.68,37.11],[126.76,37.06]],[[126.86,37.27],[126.88,37.28],[126.85,37.26],[126.86,37.27]]]]}},{"type":"Feature","properties":{"name":"강원"},"geometry":{"type":"MultiPolygon","coordinates":[[[[128.73,38.02],[128.88,37.83],[129.06,37.68],[129.05,37.64],[129.12,37.58],[129.11,37.54],[129.15,37.5],[129.12,37.49],[129.14,37.5],[129.19,37.46],[129.2,37.42],[129.26,37.38],[129.27,37.32],[129.33,37.28],[129.36,37.24],[129.34,37.23],[129.34,37.17],[129.36,37.15],[129.27,37.12],[129.23,37.07],[129.24,37.04],[129.19,37.04],[129.17,37.07],[129.1,37.1],[129.06,37.07],[128.92,37.09],[128.9,37.04],[128.85,37.05],[128.83,37.08],[128.78,37.09],[128.75,37.03],[128.62,37.09],[128.54,37.09],[128.5,37.13],[128.42,37.1],[128.38,37.16],[128.34,37.16],[128.3,37.13],[128.26,37.16],[128.3,37.17],[128.33,37.21],[128.27,37.21],[128.21,37.25],[128.16,37.21],[128.13,37.23],[128.11,37.21],[128.04,37.19],[128.02,37.25],[127.97,37.26],[127.92,37.23],[127.93,37.17],[127.79,37.14],[127.74,37.21],[127.76,37.27],[127.75,37.3],[127.77,37.31],[127.76,37.37],[127.78,37.37],[127.8,37.43],[127.8,37.47],[127.76,37.5],[127.85,37.55],[127.79,37.59],[127.71,37.59],[127.61,37.65],[127.55,37.63],[127.54,37.65],[127.55,37.66],[127.56,37.73],[127.51,37.72],[127.54,37.76],[127.52,37.79],[127.54,37.81],[127.53,37.84],[127.61,37.88],[127.61,37.94],[127.55,37.97],[127.54,38],[127.46,38.01],[127.43,38.12],[127.41,38.1],[127.38,38.12],[127.32,38.09],[127.31,38.12],[127.28,38.12],[127.3,38.18],[127.28,38.18],[127.22,38.14],[127.19,38.16],[127.16,38.24],[127.11,38.24],[127.1,38.28],[127.13,38.31],[127.16,38.3],[127.24,38.33],[127.3,38.31],[127.38,38.34],[127.46,38.33],[127.5,38.3],[127.58,38.34],[127.68,38.32],[127.78,38.35],[127.82,38.3],[127.93,38.31],[128,38.28],[128.02,38.31],[128.07,38.31],[128.16,38.34],[128.28,38.44],[128.31,38.51],[128.31,38.59],[128.36,38.61],[128.41,38.56],[128.42,38.51],[128.47,38.45],[128.46,38.43],[128.51,38.37],[128.56,38.26],[128.6,38.21],[128.58,38.19],[128.6,38.2],[128.61,38.18],[128.61,38.15],[128.73,38.02]]]]}},{"type":"Feature","properties":{"name":"충북"},"geometry":{"type":"Polygon","coordinates":[[[127.31,36.72],[127.34,36.73],[127.34,36.75],[127.36,36.76],[127.4,36.75],[127.42,36.76],[127.4,36.78],[127.4,36.8],[127.33,36.83],[127.33,36.86],[127.31,36.86],[127.31,36.89],[127.29,36.89],[127.29,36.93],[127.38,36.95],[127.4,36.97],[127.39,37],[127.45,37.01],[127.47,37.05],[127.56,37.04],[127.58,37.08],[127.6,37.07],[127.6,37.09],[127.63,37.1],[127.63,37.16],[127.69,37.14],[127.74,37.21],[127.76,37.17],[127.79,37.14],[127.87,37.16],[127.9,37.15],[127.93,37.18],[127.92,37.23],[127.97,37.26],[128.02,37.25],[128.04,37.19],[128.11,37.21],[128.13,37.23],[128.16,37.21],[128.21,37.25],[128.27,37.21],[128.33,37.21],[128.3,37.17],[128.26,37.16],[128.3,37.13],[128.34,37.16],[128.38,37.16],[128.42,37.1],[128.5,37.13],[128.54,37.09],[128.62,37.09],[128.65,37.07],[128.63,37.04],[128.61,37.05],[128.57,37.03],[128.55,37],[128.44,36.93],[128.42,36.88],[128.45,36.85],[128.42,36.81],[128.36,36.8],[128.32,36.82],[128.24,36.87],[128.24,36.85],[128.21,36.85],[128.22,36.81],[128.13,36.83],[128.09,36.8],[128.06,36.82],[128.03,36.75],[128.07,36.71],[127.96,36.74],[127.93,36.69],[127.87,36.68],[127.93,36.67],[127.93,36.6],[127.88,36.66],[127.85,36.63],[127.86,36.61],[127.8,36.6],[127.8,36.58],[127.86,36.57],[127.91,36.51],[127.88,36.49],[127.88,36.42],[127.86,36.39],[127.89,36.36],[127.84,36.31],[127.85,36.27],[127.88,36.27],[127.9,36.3],[127.96,36.25],[128.03,36.27],[128.05,36.26],[128.03,36.24],[128.06,36.2],[127.98,36.2],[128,36.16],[127.97,36.12],[127.96,36.07],[127.88,36.02],[127.85,36.04],[127.76,36.01],[127.7,36.04],[127.69,36.06],[127.66,36.04],[127.59,36.13],[127.6,36.22],[127.58,36.23],[127.55,36.23],[127.54,36.25],[127.49,36.24],[127.5,36.34],[127.52,36.35],[127.52,36.39],[127.56,36.4],[127.52,36.42],[127.5,36.41],[127.49,36.43],[127.5,36.45],[127.48,36.46],[127.48,36.48],[127.45,36.45],[127.4,36.46],[127.41,36.54],[127.38,36.54],[127.38,36.57],[127.34,36.56],[127.3,36.59],[127.29,36.64],[127.28,36.64],[127.31,36.67],[127.29,36.69],[127.31,36.72]]]}},{"type":"Feature","properties":{"name":"충남"},"geometry":{"type":"MultiPolygon","coordinates":[[[[126.37,36.6],[126.36,36.57],[126.38,36.56],[126.38,36.52],[126.41,36.49],[126.41,36.45],[126.43,36.44],[126.43,36.4],[126.39,36.42],[126.36,36.42],[126.36,36.44],[126.33,36.44],[126.34,36.51],[126.31,36.59],[126.36,36.61],[126.37,36.6]]],[[[126.69,37],[126.78,36.98],[126.82,36.9],[126.86,36.88],[127,36.94],[127.1,36.94],[127.11,36.97],[127.16,36.97],[127.27,36.91],[127.31,36.89],[127.31,36.86],[127.34,36.85],[127.33,36.83],[127.4,36.8],[127.42,36.76],[127.34,36.75],[127.34,36.73],[127.29,36.69],[127.16,36.73],[127.13,36.71],[127.16,36.69],[127.16,36.61],[127.21,36.58],[127.17,36.54],[127.17,36.51],[127.19,36.49],[127.2,36.44],[127.25,36.41],[127.28,36.41],[127.28,36.34],[127.25,36.29],[127.29,36.26],[127.28,36.24],[127.32,36.22],[127.33,36.18],[127.36,36.22],[127.37,36.27],[127.39,36.26],[127.39,36.23],[127.44,36.19],[127.53,36.25],[127.55,36.23],[127.58,36.23],[127.6,36.22],[127.59,36.13],[127.64,36.07],[127.62,36.06],[127.62,36.04],[127.64,36.03],[127.61,36.03],[127.61,36],[127.53,36.04],[127.54,36],[127.51,35.98],[127.46,35.98],[127.43,36.03],[127.4,36.01],[127.36,36.05],[127.34,36.13],[127.25,36.11],[127.25,36.08],[127.21,36.1],[127.2,36.09],[127.14,36.09],[127.12,36.06],[127.06,36.09],[127.04,36.15],[126.96,36.16],[126.89,36.14],[126.87,36.06],[126.75,36.03],[126.74,36],[126.67,36],[126.67,36.03],[126.62,36.08],[126.64,36.09],[126.61,36.1],[126.57,36.14],[126.56,36.13],[126.52,36.15],[126.51,36.13],[126.49,36.13],[126.49,36.16],[126.53,36.17],[126.53,36.24],[126.55,36.27],[126.5,36.33],[126.56,36.35],[126.51,36.39],[126.48,36.38],[126.5,36.43],[126.53,36.44],[126.5,36.43],[126.49,36.45],[126.49,36.53],[126.47,36.53],[126.46,36.58],[126.37,36.63],[126.29,36.58],[126.28,36.62],[126.3,36.64],[126.26,36.69],[126.28,36.73],[126.24,36.72],[126.24,36.7],[126.2,36.67],[126.16,36.68],[126.15,36.7],[126.17,36.72],[126.21,36.71],[126.22,36.72],[126.2,36.72],[126.21,36.74],[126.17,36.76],[126.14,36.75],[126.15,36.73],[126.12,36.71],[126.13,36.75],[126.11,36.77],[126.15,36.79],[126.16,36.83],[126.15,36.85],[126.19,36.81],[126.18,36.83],[126.2,36.86],[126.18,36.88],[126.2,36.9],[126.29,36.9],[126.28,36.96],[126.3,36.98],[126.3,36.92],[126.33,36.89],[126.3,36.85],[126.32,36.84],[126.28,36.83],[126.29,36.8],[126.34,36.82],[126.32,36.84],[126.33,36.86],[126.37,36.83],[126.36,36.88],[126.43,36.9],[126.4,36.92],[126.42,36.94],[126.39,36.93],[126.33,36.96],[126.33,36.97],[126.39,36.97],[126.33,36.99],[126.33,37],[126.36,37.01],[126.42,37.02],[126.45,37],[126.5,37.06],[126.63,37],[126.69,37]],[[126.49,36.51],[126.51,36.52],[126.56,36.51],[126.56,36.52],[126.55,36.51],[126.5,36.53],[126.49,36.51]],[[126.62,36.49],[126.56,36.48],[126.53,36.45],[126.56,36.47],[126.57,36.45],[126.57,36.47],[126.62,36.49]]]]}},{"type":"Feature","properties":{"name":"전북"},"geometry":{"type":"MultiPolygon","coordinates":[[[[127,36.15],[127.04,36.15],[127.06,36.09],[127.12,36.06],[127.14,36.09],[127.2,36.09],[127.21,36.1],[127.25,36.08],[127.25,36.11],[127.34,36.13],[127.38,36.02],[127.4,36.01],[127.43,36.03],[127.46,35.98],[127.49,35.98],[127.54,35.99],[127.53,36.04],[127.59,36.03],[127.61,36],[127.61,36.03],[127.64,36.03],[127.62,36.04],[127.62,36.07],[127.66,36.04],[127.69,36.06],[127.7,36.04],[127.76,36.01],[127.85,36.04],[127.88,36.02],[127.91,35.95],[127.88,35.93],[127.89,35.91],[127.86,35.91],[127.84,35.87],[127.74,35.84],[127.72,35.8],[127.66,35.76],[127.66,35.71],[127.62,35.65],[127.64,35.62],[127.58,35.55],[127.63,35.54],[127.65,35.49],[127.64,35.46],[127.67,35.45],[127.61,35.37],[127.62,35.34],[127.6,35.32],[127.58,35.31],[127.47,35.37],[127.43,35.36],[127.38,35.3],[127.35,35.32],[127.31,35.3],[127.26,35.31],[127.22,35.33],[127.2,35.32],[127.19,35.34],[127.11,35.3],[127.04,35.32],[127.07,35.34],[127.07,35.37],[127.03,35.39],[127.05,35.43],[127.03,35.47],[127,35.46],[126.97,35.43],[126.98,35.4],[126.94,35.39],[126.9,35.45],[126.84,35.46],[126.82,35.49],[126.81,35.47],[126.74,35.45],[126.75,35.42],[126.72,35.4],[126.72,35.37],[126.69,35.34],[126.67,35.35],[126.64,35.32],[126.58,35.33],[126.58,35.3],[126.53,35.31],[126.51,35.36],[126.49,35.35],[126.5,35.37],[126.48,35.39],[126.49,35.41],[126.48,35.43],[126.43,35.43],[126.49,35.52],[126.5,35.51],[126.56,35.54],[126.6,35.53],[126.63,35.57],[126.68,35.55],[126.66,35.59],[126.51,35.58],[126.46,35.61],[126.46,35.64],[126.56,35.7],[126.52,35.73],[126.48,35.82],[126.52,35.74],[126.57,35.69],[126.63,35.75],[126.63,35.8],[126.71,35.8],[126.67,35.89],[126.61,35.89],[126.62,35.94],[126.59,35.95],[126.59,35.9],[126.58,35.9],[126.59,35.92],[126.56,35.91],[126.56,35.94],[126.53,35.93],[126.5,35.84],[126.45,35.81],[126.44,35.83],[126.48,35.82],[126.49,35.84],[126.53,35.93],[126.51,35.97],[126.74,35.99],[126.75,36.03],[126.87,36.06],[126.89,36.14],[126.96,36.16],[127,36.15]]]]}},{"type":"Feature","properties":{"name":"전남"},"geometry":{"type":"MultiPolygon","coordinates":[[[[126.55,34.18],[126.62,34.16],[126.6,34.16],[126.6,34.15],[126.59,34.16],[126.56,34.14],[126.51,34.12],[126.5,34.16],[126.55,34.18]]],[[[126.65,34.2],[126.68,34.18],[126.66,34.17],[126.68,34.15],[126.66,34.11],[126.63,34.15],[126.65,34.17],[126.63,34.19],[126.65,34.2]]],[[[126.89,34.22],[126.91,34.21],[126.91,34.18],[126.93,34.19],[126.92,34.16],[126.88,34.15],[126.86,34.17],[126.86,34.15],[126.86,34.2],[126.89,34.22]]],[[[126.57,34.23],[126.62,34.22],[126.62,34.2],[126.6,34.2],[126.62,34.18],[126.59,34.19],[126.59,34.17],[126.55,34.19],[126.57,34.22],[126.55,34.23],[126.57,34.23]]],[[[126.84,34.31],[126.75,34.34],[126.82,34.34],[126.83,34.36],[126.9,34.34],[126.88,34.31],[126.87,34.32],[126.84,34.3],[126.84,34.31]]],[[[127.03,34.34],[126.99,34.36],[127.03,34.38],[127.04,34.35],[127.08,34.36],[127.1,34.34],[127.07,34.35],[127.08,34.33],[127.04,34.31],[127.05,34.34],[127.03,34.34]]],[[[126.69,34.4],[126.73,34.38],[126.78,34.29],[126.73,34.3],[126.74,34.29],[126.69,34.29],[126.65,34.33],[126.64,34.38],[126.69,34.4]]],[[[126.94,34.39],[126.95,34.37],[126.91,34.35],[126.86,34.37],[126.86,34.41],[126.93,34.39],[126.94,34.41],[126.94,34.39]]],[[[126.83,34.44],[126.84,34.42],[126.82,34.42],[126.85,34.42],[126.87,34.39],[126.79,34.38],[126.78,34.35],[126.77,34.36],[126.78,34.38],[126.75,34.38],[126.77,34.42],[126.83,34.44]]],[[[127.48,34.46],[127.5,34.47],[127.54,34.43],[127.49,34.41],[127.49,34.43],[127.46,34.44],[127.49,34.45],[127.45,34.45],[127.45,34.48],[127.48,34.46]]],[[[127.22,34.5],[127.24,34.48],[127.21,34.43],[127.14,34.42],[127.12,34.45],[127.1,34.44],[127.09,34.47],[127.12,34.49],[127.14,34.47],[127.22,34.5]]],[[[127.47,34.54],[127.48,34.54],[127.46,34.53],[127.48,34.52],[127.46,34.51],[127.51,34.49],[127.45,34.48],[127.44,34.49],[127.46,34.51],[127.43,34.52],[127.47,34.54]]],[[[127.77,34.53],[127.79,34.49],[127.73,34.5],[127.73,34.53],[127.7,34.54],[127.76,34.55],[127.77,34.53]]],[[[126.25,34.58],[126.3,34.57],[126.31,34.54],[126.34,34.55],[126.38,34.51],[126.39,34.48],[126.36,34.48],[126.37,34.44],[126.33,34.39],[126.32,34.42],[126.31,34.4],[126.29,34.41],[126.31,34.38],[126.29,34.36],[126.29,34.39],[126.27,34.4],[126.27,34.38],[126.2,34.37],[126.21,34.36],[126.18,34.35],[126.16,34.37],[126.13,34.36],[126.14,34.39],[126.11,34.38],[126.09,34.42],[126.1,34.44],[126.13,34.44],[126.12,34.46],[126.17,34.48],[126.19,34.51],[126.19,34.5],[126.2,34.5],[126.2,34.51],[126.22,34.52],[126.21,34.53],[126.24,34.54],[126.25,34.56],[126.24,34.58],[126.25,34.58]]],[[[126.06,34.63],[126.11,34.59],[126.09,34.57],[126.1,34.55],[126.03,34.53],[126.06,34.55],[126.03,34.56],[126.06,34.56],[126.09,34.58],[126.05,34.61],[126.06,34.63]]],[[[126.02,34.64],[126.06,34.6],[126.06,34.57],[126.02,34.56],[126.02,34.64]]],[[[126.16,34.67],[126.2,34.64],[126.12,34.62],[126.13,34.64],[126.11,34.65],[126.16,34.67]]],[[[125.43,34.7],[125.46,34.69],[125.4,34.63],[125.39,34.66],[125.43,34.7]]],[[[127.79,34.71],[127.79,34.7],[127.76,34.7],[127.81,34.66],[127.79,34.61],[127.81,34.6],[127.79,34.58],[127.71,34.62],[127.72,34.64],[127.71,34.64],[127.76,34.69],[127.74,34.73],[127.79,34.71]]],[[[125.97,34.73],[126.01,34.7],[126.01,34.69],[125.97,34.66],[125.95,34.67],[125.92,34.67],[125.92,34.71],[125.95,34.71],[125.96,34.74],[125.97,34.73]]],[[[126.1,34.77],[126.17,34.75],[126.17,34.7],[126.15,34.7],[126.14,34.73],[126.07,34.71],[126.08,34.75],[126.06,34.77],[126.1,34.77]]],[[[126.36,34.78],[126.38,34.77],[126.36,34.74],[126.36,34.78]]],[[[125.99,34.81],[126,34.76],[125.93,34.75],[125.95,34.73],[125.94,34.72],[125.89,34.73],[125.9,34.78],[125.94,34.78],[125.99,34.81]]],[[[126.12,34.88],[126.16,34.87],[126.13,34.86],[126.15,34.84],[126.12,34.83],[126.12,34.8],[126.09,34.8],[126.08,34.82],[126.08,34.79],[126.04,34.83],[126.08,34.82],[126.06,34.85],[126.12,34.85],[126.12,34.88]]],[[[126.29,34.85],[126.23,34.85],[126.3,34.89],[126.28,34.91],[126.3,34.92],[126.35,34.9],[126.31,34.87],[126.36,34.86],[126.37,34.83],[126.35,34.81],[126.33,34.82],[126.35,34.84],[126.33,34.85],[126.29,34.85]]],[[[126.06,34.93],[126.1,34.91],[126.08,34.86],[126.04,34.84],[126.03,34.87],[126.01,34.86],[125.97,34.87],[126.01,34.91],[126.05,34.91],[126.06,34.93]]],[[[127.74,34.94],[127.78,34.92],[127.78,34.89],[127.74,34.91],[127.76,34.91],[127.7,34.91],[127.72,34.95],[127.74,34.94]]],[[[126.14,35.03],[126.17,35.02],[126.18,34.97],[126.12,34.95],[126.15,34.99],[126.1,35],[126.14,35.03]]],[[[126.06,35.08],[126.05,35.1],[126.08,35.11],[126.11,35.14],[126.16,35.15],[126.12,35.13],[126.12,35.08],[126.1,35.09],[126.12,35.08],[126.1,35.05],[126.08,35.07],[126.06,35.06],[126.04,35.07],[126.06,35.08]]],[[[126.89,34.46],[126.87,34.46],[126.88,34.42],[126.81,34.45],[126.81,34.47],[126.79,34.46],[126.8,34.55],[126.78,34.61],[126.77,34.5],[126.74,34.49],[126.75,34.47],[126.68,34.42],[126.66,34.43],[126.62,34.4],[126.61,34.32],[126.56,34.32],[126.52,34.29],[126.52,34.36],[126.48,34.35],[126.46,34.36],[126.49,34.36],[126.47,34.38],[126.5,34.39],[126.49,34.41],[126.52,34.41],[126.51,34.44],[126.48,34.43],[126.46,34.45],[126.48,34.45],[126.46,34.48],[126.47,34.51],[126.44,34.52],[126.46,34.53],[126.41,34.56],[126.39,34.53],[126.38,34.56],[126.31,34.57],[126.31,34.59],[126.26,34.61],[126.29,34.63],[126.26,34.64],[126.26,34.66],[126.29,34.76],[126.33,34.74],[126.36,34.69],[126.39,34.73],[126.36,34.74],[126.38,34.77],[126.45,34.78],[126.44,34.8],[126.38,34.78],[126.35,34.8],[126.41,34.84],[126.4,34.88],[126.39,34.88],[126.41,34.91],[126.37,35],[126.36,34.97],[126.37,34.92],[126.31,34.93],[126.32,34.94],[126.3,34.97],[126.31,34.99],[126.33,34.97],[126.36,34.98],[126.33,34.99],[126.39,35.02],[126.38,35.05],[126.35,35.04],[126.32,35.09],[126.3,35.05],[126.29,35.06],[126.26,35.05],[126.27,35.03],[126.25,35.01],[126.24,35.03],[126.23,35.02],[126.23,35.05],[126.16,35.07],[126.16,35.09],[126.19,35.11],[126.26,35.09],[126.24,35.11],[126.26,35.14],[126.32,35.13],[126.35,35.16],[126.33,35.09],[126.35,35.1],[126.34,35.08],[126.37,35.08],[126.37,35.06],[126.39,35.09],[126.38,35.07],[126.41,35.06],[126.39,35.04],[126.43,35.03],[126.42,35.04],[126.46,35.07],[126.44,35.09],[126.47,35.1],[126.42,35.11],[126.36,35.17],[126.38,35.21],[126.34,35.19],[126.34,35.21],[126.32,35.2],[126.3,35.22],[126.35,35.27],[126.33,35.28],[126.37,35.28],[126.4,35.37],[126.45,35.35],[126.41,35.38],[126.41,35.43],[126.48,35.43],[126.49,35.41],[126.48,35.39],[126.5,35.37],[126.49,35.35],[126.51,35.36],[126.52,35.31],[126.58,35.3],[126.58,35.33],[126.64,35.32],[126.67,35.35],[126.69,35.34],[126.72,35.37],[126.72,35.4],[126.75,35.42],[126.74,35.45],[126.81,35.47],[126.82,35.49],[126.84,35.46],[126.9,35.45],[126.94,35.39],[126.98,35.4],[126.97,35.43],[127,35.46],[127.03,35.47],[127.05,35.43],[127.03,35.39],[127.07,35.37],[127.07,35.34],[127.04,35.32],[127.11,35.3],[127.19,35.34],[127.2,35.32],[127.22,35.33],[127.26,35.31],[127.31,35.3],[127.35,35.32],[127.38,35.3],[127.43,35.36],[127.47,35.37],[127.57,35.32],[127.62,35.25],[127.62,35.19],[127.79,35.02],[127.75,34.96],[127.77,34.93],[127.74,34.93],[127.75,34.96],[127.73,34.95],[127.7,34.92],[127.67,34.93],[127.67,34.9],[127.64,34.88],[127.62,34.9],[127.66,34.91],[127.58,34.92],[127.61,34.89],[127.59,34.87],[127.64,34.85],[127.64,34.83],[127.69,34.86],[127.77,34.86],[127.77,34.8],[127.75,34.78],[127.75,34.74],[127.7,34.72],[127.66,34.76],[127.64,34.71],[127.63,34.72],[127.61,34.71],[127.64,34.68],[127.62,34.68],[127.65,34.63],[127.58,34.65],[127.58,34.63],[127.55,34.68],[127.56,34.7],[127.58,34.69],[127.55,34.71],[127.59,34.75],[127.56,34.78],[127.56,34.81],[127.52,34.81],[127.54,34.84],[127.53,34.85],[127.52,34.88],[127.49,34.87],[127.49,34.84],[127.44,34.85],[127.4,34.83],[127.36,34.84],[127.39,34.81],[127.43,34.82],[127.39,34.79],[127.4,34.77],[127.37,34.74],[127.43,34.67],[127.49,34.65],[127.46,34.65],[127.5,34.63],[127.51,34.6],[127.49,34.57],[127.46,34.59],[127.45,34.58],[127.4,34.59],[127.41,34.58],[127.4,34.56],[127.44,34.55],[127.43,34.51],[127.38,34.5],[127.39,34.48],[127.34,34.49],[127.32,34.46],[127.34,34.45],[127.32,34.44],[127.27,34.48],[127.28,34.5],[127.26,34.52],[127.12,34.53],[127.11,34.56],[127.15,34.6],[127.17,34.59],[127.2,34.65],[127.23,34.65],[127.25,34.71],[127.28,34.72],[127.28,34.67],[127.31,34.66],[127.34,34.71],[127.33,34.75],[127.26,34.73],[127.24,34.76],[127.18,34.69],[127.12,34.7],[127.05,34.63],[126.96,34.63],[127.01,34.61],[126.98,34.57],[127.01,34.57],[126.96,34.5],[126.98,34.47],[126.94,34.48],[126.94,34.45],[126.89,34.46]],[[126.48,34.74],[126.4,34.74],[126.39,34.73],[126.46,34.71],[126.48,34.74]],[[126.81,35.05],[126.92,35.09],[126.95,35.07],[127.01,35.12],[127.02,35.17],[127,35.19],[126.97,35.18],[126.91,35.26],[126.81,35.22],[126.76,35.23],[126.76,35.26],[126.74,35.25],[126.72,35.21],[126.65,35.19],[126.67,35.17],[126.64,35.15],[126.65,35.12],[126.67,35.1],[126.73,35.11],[126.77,35.07],[126.76,35.06],[126.81,35.05]]]]}},{"type":"Feature","properties":{"name":"경북"},"geometry":{"type":"MultiPolygon","coordinates":[[[[129.42,36.89],[129.48,36.77],[129.48,36.73],[129.47,36.68],[129.44,36.67],[129.41,36.62],[129.41,36.59],[129.45,36.51],[129.37,36.29],[129.39,36.22],[129.37,36.2],[129.39,36.18],[129.4,36.13],[129.44,36.1],[129.37,36.05],[129.39,36.03],[129.43,36.03],[129.4,36.02],[129.42,36.02],[129.41,36],[129.45,35.99],[129.56,36.09],[129.58,36.02],[129.52,35.93],[129.53,35.9],[129.52,35.87],[129.53,35.87],[129.45,35.65],[129.35,35.68],[129.3,35.64],[129.26,35.66],[129.26,35.7],[129.14,35.72],[129.08,35.69],[129.07,35.66],[129.08,35.64],[129.05,35.65],[128.99,35.61],[128.92,35.64],[128.88,35.63],[128.84,35.59],[128.8,35.59],[128.79,35.57],[128.7,35.58],[128.69,35.6],[128.58,35.59],[128.54,35.62],[128.53,35.71],[128.58,35.74],[128.61,35.74],[128.62,35.7],[128.68,35.72],[128.7,35.76],[128.68,35.79],[128.72,35.81],[128.72,35.86],[128.76,35.87],[128.76,35.91],[128.74,35.93],[128.75,35.97],[128.7,36.02],[128.62,36.01],[128.55,35.96],[128.53,35.98],[128.53,35.94],[128.5,35.89],[128.47,35.9],[128.48,35.93],[128.45,35.94],[128.4,35.9],[128.38,35.85],[128.45,35.85],[128.48,35.82],[128.42,35.81],[128.38,35.76],[128.43,35.73],[128.43,35.7],[128.35,35.7],[128.4,35.64],[128.37,35.61],[128.35,35.64],[128.31,35.66],[128.26,35.64],[128.24,35.66],[128.23,35.64],[128.16,35.65],[128.16,35.67],[128.2,35.68],[128.2,35.72],[128.16,35.78],[128.13,35.79],[128.12,35.82],[128.07,35.84],[128.01,35.83],[127.98,35.86],[127.93,35.86],[127.92,35.89],[127.88,35.89],[127.88,35.93],[127.91,35.95],[127.88,36],[127.88,36.02],[127.96,36.07],[127.97,36.12],[128,36.16],[127.98,36.2],[128.06,36.2],[128.03,36.24],[128.05,36.26],[128.03,36.27],[127.96,36.25],[127.9,36.3],[127.88,36.27],[127.85,36.27],[127.84,36.31],[127.89,36.36],[127.86,36.39],[127.88,36.42],[127.88,36.49],[127.91,36.51],[127.86,36.57],[127.8,36.6],[127.86,36.61],[127.85,36.63],[127.88,36.66],[127.93,36.6],[127.93,36.67],[127.87,36.68],[127.93,36.69],[127.96,36.74],[128.07,36.71],[128.03,36.75],[128.06,36.82],[128.09,36.8],[128.13,36.83],[128.22,36.81],[128.21,36.85],[128.24,36.85],[128.24,36.87],[128.32,36.82],[128.36,36.8],[128.42,36.81],[128.45,36.85],[128.42,36.88],[128.44,36.93],[128.55,37],[128.58,37.04],[128.63,37.04],[128.65,37.07],[128.75,37.03],[128.76,37.07],[128.78,37.09],[128.83,37.08],[128.85,37.05],[128.9,37.04],[128.92,37.09],[129.06,37.07],[129.1,37.1],[129.17,37.07],[129.19,37.04],[129.24,37.04],[129.23,37.07],[129.34,37.15],[129.37,37.14],[129.38,37.1],[129.43,37.06],[129.41,37.03],[129.42,36.89]]],[[[130.91,37.54],[130.92,37.49],[130.88,37.45],[130.8,37.48],[130.79,37.52],[130.91,37.54]]]]}},{"type":"Feature","properties":{"name":"경남"},"geometry":{"type":"MultiPolygon","coordinates":[[[[128.35,34.84],[128.39,34.81],[128.38,34.83],[128.44,34.83],[128.42,34.76],[128.36,34.8],[128.38,34.82],[128.33,34.82],[128.34,34.84],[128.35,34.84]]],[[[128.03,34.92],[128.01,34.87],[128.05,34.9],[128.07,34.87],[128.05,34.85],[128.09,34.83],[127.97,34.84],[127.96,34.87],[128,34.92],[128.03,34.92]]],[[[127.9,34.86],[127.95,34.81],[127.99,34.83],[128.07,34.82],[128.05,34.8],[128.06,34.75],[128.03,34.72],[128.06,34.71],[128.02,34.7],[128.01,34.72],[127.96,34.71],[127.95,34.78],[127.9,34.77],[127.91,34.73],[127.86,34.73],[127.84,34.76],[127.86,34.78],[127.81,34.85],[127.83,34.9],[127.86,34.9],[127.85,34.92],[127.87,34.94],[127.93,34.94],[127.93,34.89],[127.9,34.88],[127.9,34.86]]],[[[128.67,34.79],[128.64,34.76],[128.68,34.73],[128.63,34.74],[128.64,34.71],[128.58,34.7],[128.61,34.73],[128.58,34.74],[128.6,34.78],[128.56,34.77],[128.57,34.79],[128.54,34.78],[128.54,34.79],[128.58,34.8],[128.59,34.85],[128.52,34.83],[128.51,34.81],[128.47,34.87],[128.53,34.92],[128.57,34.9],[128.58,34.92],[128.6,34.91],[128.62,34.89],[128.59,34.95],[128.61,34.97],[128.65,34.96],[128.66,35],[128.68,34.99],[128.67,35.01],[128.68,35.04],[128.72,35.02],[128.69,35],[128.73,34.95],[128.69,34.88],[128.71,34.87],[128.72,34.89],[128.75,34.89],[128.74,34.87],[128.72,34.86],[128.74,34.84],[128.7,34.84],[128.72,34.84],[128.74,34.79],[128.71,34.8],[128.71,34.81],[128.69,34.8],[128.67,34.81],[128.67,34.79]]],[[[128.46,35.09],[128.48,35.08],[128.36,35.05],[128.38,35.04],[128.37,35.02],[128.39,35.02],[128.38,35.04],[128.44,35.05],[128.47,35.08],[128.48,35.05],[128.46,35.05],[128.5,35.02],[128.47,34.99],[128.41,34.99],[128.44,34.98],[128.42,34.87],[128.45,34.89],[128.44,34.91],[128.48,34.89],[128.44,34.84],[128.39,34.83],[128.37,34.85],[128.42,34.87],[128.39,34.87],[128.38,34.89],[128.37,34.87],[128.35,34.89],[128.35,34.87],[128.33,34.88],[128.3,34.9],[128.35,34.91],[128.32,34.96],[128.3,34.91],[128.27,34.9],[128.27,34.94],[128.25,34.94],[128.2,34.94],[128.2,34.89],[128.16,34.91],[128.13,34.89],[128.1,34.9],[128.12,34.92],[128.05,34.93],[128.03,34.96],[128.05,34.98],[128.04,35.02],[128.05,35.08],[128.03,35.08],[128.02,35.03],[128.01,35.05],[127.98,35.03],[128,35.04],[128.02,35.01],[128.01,34.98],[128,35],[127.98,34.98],[127.96,34.99],[127.94,34.98],[127.92,35.01],[127.9,34.96],[127.85,34.95],[127.84,34.96],[127.8,34.92],[127.76,34.97],[127.79,35.01],[127.77,35.05],[127.62,35.18],[127.62,35.25],[127.58,35.3],[127.62,35.33],[127.61,35.37],[127.67,35.45],[127.64,35.46],[127.65,35.49],[127.63,35.54],[127.58,35.55],[127.64,35.62],[127.62,35.65],[127.66,35.71],[127.67,35.77],[127.72,35.8],[127.74,35.84],[127.84,35.87],[127.86,35.91],[127.89,35.91],[127.89,35.89],[127.92,35.89],[127.93,35.86],[127.98,35.86],[128.01,35.83],[128.07,35.84],[128.12,35.82],[128.13,35.79],[128.16,35.78],[128.2,35.72],[128.2,35.68],[128.16,35.67],[128.16,35.65],[128.35,35.65],[128.38,35.61],[128.45,35.64],[128.51,35.64],[128.51,35.67],[128.53,35.68],[128.54,35.62],[128.58,35.59],[128.69,35.6],[128.76,35.57],[128.84,35.59],[128.88,35.64],[128.94,35.64],[128.98,35.61],[129.02,35.61],[129.02,35.58],[128.97,35.56],[128.99,35.53],[129.06,35.53],[129.05,35.51],[129.11,35.5],[129.14,35.45],[129.2,35.44],[129.22,35.41],[129.18,35.35],[129.12,35.37],[129.13,35.35],[129.11,35.31],[129.01,35.27],[128.99,35.23],[128.88,35.21],[128.88,35.15],[128.87,35.17],[128.79,35.16],[128.84,35.11],[128.81,35.08],[128.78,35.08],[128.8,35.1],[128.79,35.11],[128.76,35.11],[128.78,35.1],[128.76,35.06],[128.76,35.08],[128.74,35.09],[128.74,35.1],[128.69,35.1],[128.69,35.15],[128.67,35.14],[128.67,35.12],[128.65,35.15],[128.61,35.14],[128.59,35.2],[128.63,35.22],[128.56,35.19],[128.6,35.14],[128.57,35.13],[128.6,35.13],[128.59,35.12],[128.63,35.08],[128.6,35.07],[128.63,35.07],[128.57,35.05],[128.6,35.07],[128.56,35.07],[128.58,35.09],[128.55,35.09],[128.54,35.12],[128.52,35.1],[128.45,35.1],[128.46,35.09]]]]}},{"type":"Feature","properties":{"name":"제주"},"geometry":{"type":"MultiPolygon","coordinates":[[[[126.9,33.52],[126.9,33.48],[126.92,33.46],[126.94,33.48],[126.95,33.46],[126.92,33.45],[126.94,33.43],[126.92,33.43],[126.91,33.39],[126.87,33.37],[126.84,33.31],[126.78,33.31],[126.74,33.28],[126.66,33.27],[126.6,33.23],[126.52,33.24],[126.48,33.22],[126.46,33.24],[126.33,33.24],[126.3,33.22],[126.29,33.2],[126.27,33.19],[126.16,33.29],[126.17,33.35],[126.31,33.47],[126.49,33.52],[126.63,33.54],[126.64,33.56],[126.67,33.54],[126.77,33.57],[126.83,33.56],[126.84,33.53],[126.9,33.52]]]]}}]}
